[{"OBJECT_NAME":"AUTCUBE 2","OBJECT_ID":"2018-084K","EPOCH":"2026-03-09T11:33:24.036480","MEAN_MOTION":15.09319394,"ECCENTRICITY":0.00096854,"INCLINATION":98.0799,"RA_OF_ASC_NODE":269.364,"ARG_OF_PERICENTER":28.2406,"MEAN_ANOMALY":331.9345,"EPHEMERIS_TYPE":0,"CLASSIFICATION_TYPE":"U","NORAD_CAT_ID":43681,"ELEMENT_SET_NO":999,"REV_AT_EPOCH":40188,"BSTAR":0.00033524122,"MEAN_MOTION_DOT":5.282e-5,"MEAN_MOTION_DDOT":0},{"OBJECT_NAME":"STARLINK-4077","OBJECT_ID":"2022-083Y","EPOCH":"2026-03-09T12:56:46.881600","MEAN_MOTION":15.08838007,"ECCENTRICITY":0.00014603,"INCLINATION":53.2175,"RA_OF_ASC_NODE":164.7947,"ARG_OF_PERICENTER":105.6098,"MEAN_ANOMALY":254.5055,"EPHEMERIS_TYPE":0,"CLASSIFICATION_TYPE":"U","NORAD_CAT_ID":53154,"ELEMENT_SET_NO":999,"REV_AT_EPOCH":20133,"BSTAR":-3.3682784e-5,"MEAN_MOTION_DOT":-8.24e-6,"MEAN_MOTION_DDOT":0}]
